ID,Address,Suburb,Price,Type,Date,Rooms,Bathroom,Car,LandSize,Age,Latitude,Longitude,train_station_id,distance_to_train_station,travel_min_to_CBD,over_priced?,crime_A_average,crime_B_average,crime_C_average,closest_primary_school,distance_to_closest_primary,primary_school_ranking,closest_secondary_school,distance_to_closest_secondary,secondary_school_ranking
ID460271126,18 Malcolm Ct,MOUNT WAVERLEY,1530000.0,h,17/06/2017,3,1.0,1.0,750.0,49.0,-37.87718,145.11248,19847,3048.26,31.67,False,1471.0,7759.67,779.67,St Mary Magdalen's School,1032.55,not ranked,Salesian College,1239.25,153
ID997149680,10 Mowbray St,HAWTHORN EAST,3255000.0,h,17/06/2017,4,3.0,3.0,1116.0,35.0,-37.84283,145.05178,19851,1810.31,24.67,False,1253.67,7401.33,484.67,Auburn South Primary School,652.23,124,Alia College,582.46,500
ID552265695,2/19 Thurloo St,CHADSTONE,881000.0,t,28/08/2016,4,2.0,1.0,188.0,5.0,-37.8781,145.0955,19847,1767.34,31.67,False,1540.67,6062.33,477.67,St Mary Magdalen's School,534.28,not ranked,Salesian College,664.0,153
ID814618877,16 Thistle St,BRUNSWICK,940000.0,t,8/10/2016,3,2.0,1.0,186.0,3.0,-37.7581,144.9514,19967,888.76,27.33,True,958.67,5673.0,628.0,Brunswick North Primary School,211.36,not ranked,Brunswick Secondary College,1459.73,211
ID731509896,26 Newton St,SURREY HILLS,2060000.0,h,18/03/2017,4,2.0,2.0,745.0,44.0,-37.8299,145.1088,19895,1089.49,25.5,False,2532.33,5455.0,713.0,Our Lady of Perpetual Succour School,228.3,178,Kingswood College,921.52,106
ID226066701,34 Martins La,VIEWBANK,870000.0,h,27/05/2017,3,2.0,2.0,291.0,19.0,-37.73253,145.0873,19983,1755.49,34.75,False,647.0,2861.33,222.67,Viewbank Primary School,340.67,238,Viewbank College,966.7,96
ID740289552,3811/80 Abeckett St,MELBOURNE,450000.0,u,7/11/2016,2,1.0,1.0,0.0,5.0,-37.8091,144.9609,19842,175.79,4.74,False,278.0,489.0,65.0,Carlton Gardens Primary School,1090.93,199,Ozford College,708.5,530
ID169385566,81 Parramatta Rd,WERRIBEE,470000.0,h,16/09/2017,3,1.0,2.0,640.0,34.0,-37.88537,144.65337,19921,1701.41,35.14,True,98.67,190.67,19.0,Westgrove Primary School,936.65,not ranked,Wyndham Central Secondary College,398.75,not ranked
ID292132961,56 Asling St,BRIGHTON,1990000.0,t,22/04/2017,3,2.0,2.0,0.0,84.0,-37.901,145.0026,19952,432.71,24.5,False,2897.33,11243.0,942.0,St James' School,551.52,248,Star of the Sea College,697.76,54
ID680670690,49 Rogerson St,AVONDALE HEIGHTS,795000.0,h,28/05/2016,3,1.0,1.0,549.0,59.0,-37.7644,144.8575,20004,3241.05,26.38,False,1654.0,9119.67,550.0,Avondale Primary School,404.92,326,Braybrook College,1774.23,139
ID703936258,115 Bignell Rd,BENTLEIGH EAST,1160000.0,h,30/07/2016,2,1.0,2.0,750.0,14.0,-37.9325,145.0694,19937,2875.07,38.27,False,925.67,4701.33,308.67,East Bentleigh Primary School,223.31,not ranked,St James' College,692.85,not ranked
ID464772481,2/62 Clydesdale Rd,AIRPORT WEST,530000.0,u,10/09/2016,2,1.0,1.0,120.0,7.0,-37.7234,144.8792,20033,3775.33,34.0,False,1202.0,5034.33,333.0,St Christopher's School,201.62,274,Penleigh & Essendon Grammar School,1248.4,not ranked
ID251212131,375 South Rd,BRIGHTON EAST,1650000.0,h,26/08/2017,5,2.0,5.0,773.0,69.0,-37.93203,145.02844,19937,773.12,38.27,False,2897.33,11243.0,942.0,Bentleigh West Primary School,1282.47,31,Our Lady of the Sacred Heart College,1229.98,not ranked
ID818033189,38 Stewart St,BRUNSWICK,1317000.0,h,28/05/2016,3,1.0,1.0,480.0,17.0,-37.7639,144.966,19967,553.53,27.33,True,958.67,5673.0,628.0,St Margaret Mary's School,618.95,483,Sydney Road Community School,739.68,447
ID950246917,3 Stenson Rd,KEALBA,515000.0,h,10/12/2016,3,1.0,4.0,597.0,44.0,-37.7392,144.8241,20002,2208.81,31.38,False,555.67,1129.0,160.67,St Paul's Kealba Catholic School,724.43,386,St Albans Secondary College,1550.52,179
ID428392457,24 Gretana Cr,FRANKSTON,550000.0,h,19/08/2017,3,2.0,1.0,539.0,48.0,-38.14406,145.16352,19855,3272.73,68.82,False,517.33,2973.0,288.67,Karingal Heights Primary School,407.25,not ranked,McClelland Secondary College,509.96,355
ID860486273,157 Albion St,BRUNSWICK,770000.0,h,15/10/2016,2,1.0,0.0,152.0,109.0,-37.7611,144.966,19967,468.09,27.33,False,958.67,5673.0,628.0,St Margaret Mary's School,338.65,483,Sydney Road Community School,1022.81,447
ID161442485,10/27 Lewisham Rd,WINDSOR,600000.0,u,18/06/2016,2,1.0,1.0,0.0,49.0,-37.8559,144.999,19957,612.38,15.5,False,1002.67,4068.0,328.33,Windsor Primary School,330.0,not ranked,Presentation College Windsor,423.27,not ranked
ID988180371,78 Bowen St,CAMBERWELL,4060000.0,h,3/09/2017,4,3.0,2.0,947.0,59.0,-37.84457,145.06218,19850,1177.94,26.67,False,3767.67,18925.0,2042.33,Camberwell South Primary School,373.18,327,Alia College,1502.49,500
ID781294565,11b Lilac St,BENTLEIGH EAST,1005000.0,t,16/07/2016,4,2.0,2.0,296.0,13.0,-37.9197,145.05700000000004,19939,1774.92,35.15,False,925.67,4701.33,308.67,Valkstone Primary School,567.02,134,Bentleigh Secondary College,887.06,230
ID972993404,41 Burgundy Dr,DONCASTER,1180000.0,h,15/10/2016,3,1.0,2.0,657.0,59.0,-37.7807,145.1193,20042,4292.21,25.77,False,1566.67,8895.33,491.0,St Gregory the Great School,262.6,174,Templestowe College,1500.89,307
ID652280782,3/33 Elphin Gr,HAWTHORN,450000.0,u,30/07/2016,2,1.0,1.0,0.0,49.0,-37.8186,145.0423,19903,525.24,17.9,False,1150.67,7827.0,922.33,Methodist Ladies' College,616.45,41,Swinburne Senior Secondary College,521.31,not ranked
ID111573745,5 MacKenzie St,BRUNSWICK,1222500.0,h,10/12/2016,3,1.0,0.0,331.0,129.0,-37.7619,144.959,19967,165.31,27.33,False,958.67,5673.0,628.0,Brunswick North Primary School,788.39,not ranked,Sydney Road Community School,903.49,447
ID633582295,1/152 Blyth St,ALTONA,743000.0,t,12/11/2016,3,2.0,2.0,211.0,69.0,-37.8698,144.816,19925,561.16,28.5,False,2489.67,11817.33,1268.67,Altona Primary School,636.58,213,Mount St Joseph Girls' College,758.67,119
ID844090518,7/21 Lillimur Rd,ORMOND,447000.0,u,27/11/2016,1,1.0,1.0,0.0,13.0,-37.9016,145.0414,19941,238.35,32.15,False,268.33,736.0,128.33,Kilvington Grammar School,232.21,61,Kilvington Grammar School,232.21,37
ID507278754,44 Saunders St,COBURG,1600000.0,h,3/06/2017,3,2.0,2.0,737.0,89.0,-37.75107,144.95112,19966,1015.82,30.0,False,1097.67,5916.0,553.33,St Fidelis' School,142.32,not ranked,Antonine College,1324.31,482
ID423761054,4 Ella Ct,DONCASTER,1300000.0,h,8/04/2017,4,2.0,2.0,872.0,49.0,-37.7906,145.1138,20042,3255.97,25.77,False,1666.0,9333.67,523.0,Birralee Primary School,316.2,71,Koonung Secondary College,1331.91,94
ID338836405,3 Penn Ct,FAWKNER,605000.0,h,17/09/2016,3,1.0,2.0,531.0,54.0,-37.7022,144.9669,19961,726.88,39.0,False,1144.33,6845.67,375.67,St Matthew's School,459.59,not ranked,John Fawkner Secondary College,440.42,not ranked
ID831286327,26 Clarendon St,AVONDALE HEIGHTS,665000.0,h,22/07/2017,4,1.0,1.0,538.0,59.0,-37.76518,144.85621,20004,3100.55,26.38,False,1672.67,10063.67,646.33,Avondale Primary School,480.53,326,Braybrook College,1643.61,139
ID381230741,3/1526 High St,GLEN IRIS,420000.0,u,27/11/2016,1,1.0,1.0,805.0,8.0,-37.8592,145.0484,19944,1853.6,20.8,False,1923.67,8979.33,620.33,Sacre Coeur,398.1,176,Sacre Coeur,398.1,16
ID885532214,17 Bannister St,JACANA,618000.0,h,20/05/2017,4,1.0,2.0,604.0,49.0,-37.6875,144.9102,20030,965.98,40.0,False,92.33,260.0,36.67,Broadmeadows Valley Primary School,760.41,not ranked,Penola Catholic College,711.39,361
ID945125976,5 Octavia St,ST KILDA,920000.0,h,29/04/2017,2,1.0,0.0,190.0,64.0,-37.8579,144.9844,19957,701.84,15.5,False,1412.0,6364.0,699.33,St Kilda Park Primary School,581.09,73,St Michael's Grammar School,654.49,58
ID506103181,91 Campbell St,HEATHMONT,1270500.0,h,22/07/2017,4,2.0,3.0,801.0,62.0,-37.82734,145.24487,19871,112.79,41.08,False,512.0,1119.67,175.67,Great Ryrie Primary School,749.16,497,Aquinas College,995.15,151
ID844338673,53/69 Palmer St,RICHMOND,815000.0,u,7/11/2016,2,2.0,2.0,0.0,6.0,-37.8187,145.0079,19906,986.76,11.9,True,824.67,1890.33,159.33,Trinity Catholic School,318.44,not ranked,Richmond High School,470.64,not ranked
ID512077081,40 Angus St,HADFIELD,740000.0,h,12/11/2016,3,1.0,1.0,568.0,59.0,-37.7077,144.9438,19961,1540.64,39.0,False,1683.67,8938.67,509.33,St Thomas More's School,110.31,not ranked,Pascoe Vale Girls Secondary College,1319.1,not ranked
ID513094432,4/22 Murray St,BRUNSWICK WEST,380000.0,u,10/09/2016,2,1.0,1.0,0.0,49.0,-37.7594,144.9427,19967,1595.91,27.33,False,958.67,5673.0,628.0,Brunswick North West Primary School,309.78,456,Brunswick Secondary College,1676.89,211
ID250204063,3/1 Grant St,MALVERN EAST,1060000.0,t,27/05/2017,3,1.0,1.0,206.0,39.0,-37.87107,145.04991,19943,962.81,21.27,False,717.33,1763.0,318.67,St Mary's School,342.09,159,Sacre Coeur,1047.37,16
ID838197555,1/8 Graves St,ESSENDON,864000.0,t,1/07/2017,3,1.0,2.0,177.0,19.0,-37.7401,144.89674,20036,2272.37,27.0,False,330.33,1855.0,82.0,Essendon North Primary School,589.51,261,Buckley Park College,786.21,123
ID354364426,41 River St,MARIBYRNONG,986500.0,h,8/10/2016,3,1.0,1.0,629.0,13.0,-37.7798,144.8872,20023,2455.49,19.4,False,610.0,1743.67,228.0,Footscray North Primary School,946.47,235,Maribyrnong Secondary College,96.46,not ranked
ID868179063,6 Conrad Ct,BLACKBURN NORTH,1001000.0,h,17/06/2017,3,1.0,1.0,671.0,49.0,-37.802,145.15828,19898,2138.92,30.31,False,5.0,73.0,1.0,Beverley Hills Primary School,655.4,7,Blackburn High School,1188.37,216
ID463137168,21 Penn Ct,FAWKNER,750000.0,h,18/06/2016,4,2.0,1.0,613.0,49.0,-37.7034,144.9666,19961,744.85,39.0,False,1144.33,6845.67,375.67,Darul Ulum College of Victoria,490.19,438,John Fawkner Secondary College,469.46,not ranked
ID560860862,15/289 Barkly St,ST KILDA,482300.0,u,25/02/2017,2,1.0,0.0,0.0,39.0,-37.8735,144.9798,19956,1285.03,17.5,False,1412.0,6364.0,699.33,Yesodei HaTorah College,325.75,277,Yesodei HaTorah College,325.75,38
ID416987662,36/73 River St,RICHMOND,592000.0,u,9/09/2017,2,2.0,1.0,14294.0,13.0,-37.81894000000001,145.01314,19905,916.28,13.95,False,885.0,1901.0,227.67,Hawthorn West Primary School,478.64,125,Melbourne Girls College,410.71,not ranked
